ORBCOMM FM33 [-]        
1 25983U 99065D   23328.08148285  .00001626  00000+0  59080-3 0  9999
2 25983  45.0281 187.2613 0009074  69.7999  93.1703 14.37000757253913
ORBCOMM FM36 [-]        
1 25984U 99065E   23328.04832199  .00001631  00000+0  61804-3 0  9993
2 25984  45.0408 270.0165 0005115 314.8173  45.2258 14.34874391252897
ORBCOMM FM35 [+]        
1 25985U 99065F   23327.21194853  .00001478  00000+0  56852-3 0  9996
2 25985  45.0408 276.1375 0003062  24.3473 335.7519 14.34549770252586
ORBCOMM FM34 [-]        
1 25986U 99065G   23328.08278300  .00001461  00000+0  56301-3 0  9994
2 25986  45.0402 272.5225 0004897 347.9097  12.1633 14.34503749252868
ORBCOMM FM38 [-]        
1 33060U 08031A   23327.63799169  .00002448  00000+0  37755-3 0  9998
2 33060  48.4402 148.0091 0005214 117.1673 242.9772 14.76438677830161
ORBCOMM FM41 [-]        
1 33061U 08031B   23327.67538108  .00002251  00000+0  35145-3 0  9990
2 33061  48.4440 154.0707 0004260 103.1231  11.2933 14.76197287829679
ORBCOMM FM29 [-]        
1 33062U 08031C   23327.92947003  .00002328  00000+0  36329-3 0  9997
2 33062  48.4395 160.8671 0006187 100.8696  41.4434 14.76084359829624
ORBCOMM FM39 [-]        
1 33063U 08031D   23327.83000393  .00002013  00000+0  32445-3 0  9996
2 33063  48.4405 180.6711 0007068  74.1594 286.0098 14.75221002829328
